[
    {
        "Altitude(m)": 554015.312037632,
        "Argument of Periapsis(deg)": 0.006622991110713501,
        "Eccentricity": 0.0,
        "Inclination(deg)": 53.0,
        "Latitude(deg)": 22.287943360288356,
        "Longitude(deg)": -142.88361188105063,
        "Mean Anomaly(deg)": 28.27339286757756,
        "RAAN(deg)": 299.99014336852804,
        "Satellite Name": "Starlink Shell 1 1321",
        "Satellite Number": 1321,
        "Semi-Major Axis(m)": 6931778.249405717,
        "Time(s)": 190
    },
    {
        "Altitude(m)": 554064.9732995089,
        "Argument of Periapsis(deg)": 0.0069715695902247375,
        "Eccentricity": 0.0,
        "Inclination(deg)": 53.0,
        "Latitude(deg)": 22.76641591674482,
        "Longitude(deg)": -142.48373021789286,
        "Mean Anomaly(deg)": 28.900224071134303,
        "RAAN(deg)": 299.9896245984506,
        "Satellite Name": "Starlink Shell 1 1321",
        "Satellite Number": 1321,
        "Semi-Major Axis(m)": 6931778.249405717,
        "Time(s)": 200
    },
    {
        "Altitude(m)": 554116.4718081517,
        "Argument of Periapsis(deg)": 0.007320148069735974,
        "Eccentricity": 0.0,
        "Inclination(deg)": 53.0,
        "Latitude(deg)": 23.243633867806558,
        "Longitude(deg)": -142.08076860953145,
        "Mean Anomaly(deg)": 29.52705527469105,
        "RAAN(deg)": 299.9891058283731,
        "Satellite Name": "Starlink Shell 1 1321",
        "Satellite Number": 1321,
        "Semi-Major Axis(m)": 6931778.249405717,
        "Time(s)": 210
    },
    {
        "Altitude(m)": 554169.7620549896,
        "Argument of Periapsis(deg)": 0.007668726549247212,
        "Eccentricity": 0.0,
        "Inclination(deg)": 53.0,
        "Latitude(deg)": 23.71955927187118,
        "Longitude(deg)": -141.67464131670081,
        "Mean Anomaly(deg)": 30.15388647824775,
        "RAAN(deg)": 299.9885870582956,
        "Satellite Name": "Starlink Shell 1 1321",
        "Satellite Number": 1321,
        "Semi-Major Axis(m)": 6931778.249405717,
        "Time(s)": 220
    },
    {
        "Altitude(m)": 554224.7978005346,
        "Argument of Periapsis(deg)": 0.00801730502875845,
        "Eccentricity": 0.0,
        "Inclination(deg)": 53.0,
        "Latitude(deg)": 24.19415343151475,
        "Longitude(deg)": -141.2652613930143,
        "Mean Anomaly(deg)": 30.780717681804443,
        "RAAN(deg)": 299.9880682882182,
        "Satellite Name": "Starlink Shell 1 1321",
        "Satellite Number": 1321,
        "Semi-Major Axis(m)": 6931778.249405717,
        "Time(s)": 230
    },
    {
        "Altitude(m)": 554281.5320995603,
        "Argument of Periapsis(deg)": 0.008365883508269684,
        "Eccentricity": 0.0,
        "Inclination(deg)": 53.0,
        "Latitude(deg)": 24.667376868528354,
        "Longitude(deg)": -140.8525401617069,
        "Mean Anomaly(deg)": 31.40754888536114,
        "RAAN(deg)": 299.98754951814067,
        "Satellite Name": "Starlink Shell 1 1321",
        "Satellite Number": 1321,
        "Semi-Major Axis(m)": 6931778.249405717,
        "Time(s)": 240
    },
    {
        "Altitude(m)": 554339.9173266084,
        "Argument of Periapsis(deg)": 0.008714461987780921,
        "Eccentricity": 0.0,
        "Inclination(deg)": 53.0,
        "Latitude(deg)": 25.139189298427407,
        "Longitude(deg)": -140.4363882064772,
        "Mean Anomaly(deg)": 32.034380088917885,
        "RAAN(deg)": 299.9870307480632,
        "Satellite Name": "Starlink Shell 1 1321",
        "Satellite Number": 1321,
        "Semi-Major Axis(m)": 6931778.249405717,
        "Time(s)": 250
    },
    {
        "Altitude(m)": 554399.9052017633,
        "Argument of Periapsis(deg)": 0.009063040467292158,
        "Eccentricity": 0.0,
        "Inclination(deg)": 53.0,
        "Latitude(deg)": 25.609549604427414,
        "Longitude(deg)": -140.0167148508191,
        "Mean Anomaly(deg)": 32.66121129247463,
        "RAAN(deg)": 299.98651197798574,
        "Satellite Name": "Starlink Shell 1 1321",
        "Satellite Number": 1321,
        "Semi-Major Axis(m)": 6931778.249405717,
        "Time(s)": 260
    },
    {
        "Altitude(m)": 554461.4468167514,
        "Argument of Periapsis(deg)": 0.009411618946803396,
        "Eccentricity": 0.0,
        "Inclination(deg)": 53.0,
        "Latitude(deg)": 26.078415810888075,
        "Longitude(deg)": -139.5934276388592,
        "Mean Anomaly(deg)": 33.288042496031274,
        "RAAN(deg)": 299.9859932079083,
        "Satellite Name": "Starlink Shell 1 1321",
        "Satellite Number": 1321,
        "Semi-Major Axis(m)": 6931778.249405717,
        "Time(s)": 270
    },
    {
        "Altitude(m)": 554524.4926612902,
        "Argument of Periapsis(deg)": 0.009760197426314633,
        "Eccentricity": 0.0,
        "Inclination(deg)": 53.0,
        "Latitude(deg)": 26.54574505623034,
        "Longitude(deg)": -139.16643333072633,
        "Mean Anomaly(deg)": 33.91487369958802,
        "RAAN(deg)": 299.98547443783076,
        "Satellite Name": "Starlink Shell 1 1321",
        "Satellite Number": 1321,
        "Semi-Major Axis(m)": 6931778.249405717,
        "Time(s)": 280
    },
    {
        "Altitude(m)": 554588.9926497028,
        "Argument of Periapsis(deg)": 0.01010877590582587,
        "Eccentricity": 0.0,
        "Inclination(deg)": 53.0,
        "Latitude(deg)": 27.011493565324596,
        "Longitude(deg)": -138.73563738687687,
        "Mean Anomaly(deg)": 34.54170490314472,
        "RAAN(deg)": 299.9849556677533,
        "Satellite Name": "Starlink Shell 1 1321",
        "Satellite Number": 1321,
        "Semi-Major Axis(m)": 6931778.249405717,
        "Time(s)": 290
    },
    {
        "Altitude(m)": 554654.8961477824,
        "Argument of Periapsis(deg)": 0.010457354385337106,
        "Eccentricity": 0.0,
        "Inclination(deg)": 53.0,
        "Latitude(deg)": 27.47561662135887,
        "Longitude(deg)": -138.30094345442475,
        "Mean Anomaly(deg)": 35.16853610670147,
        "RAAN(deg)": 299.98443689767583,
        "Satellite Name": "Starlink Shell 1 1321",
        "Satellite Number": 1321,
        "Semi-Major Axis(m)": 6931778.249405717,
        "Time(s)": 300
    },
    {
        "Altitude(m)": 554722.1519998863,
        "Argument of Periapsis(deg)": 0.010805932864848343,
        "Eccentricity": 0.0,
        "Inclination(deg)": 53.0,
        "Latitude(deg)": 27.938068537197154,
        "Longitude(deg)": -137.8622543685411,
        "Mean Anomaly(deg)": 35.795367310258214,
        "RAAN(deg)": 299.9839181275983,
        "Satellite Name": "Starlink Shell 1 1321",
        "Satellite Number": 1321,
        "Semi-Major Axis(m)": 6931778.249405717,
        "Time(s)": 310
    },
    {
        "Altitude(m)": 554790.7085562408,
        "Argument of Periapsis(deg)": 0.01115451134435958,
        "Eccentricity": 0.0,
        "Inclination(deg)": 53.0,
        "Latitude(deg)": 28.398802626234062,
        "Longitude(deg)": -137.41947164338436,
        "Mean Anomaly(deg)": 36.422198513814855,
        "RAAN(deg)": 299.9833993575209,
        "Satellite Name": "Starlink Shell 1 1321",
        "Satellite Number": 1321,
        "Semi-Major Axis(m)": 6931778.249405717,
        "Time(s)": 320
    },
    {
        "Altitude(m)": 554860.5137004755,
        "Argument of Periapsis(deg)": 0.011503089823870818,
        "Eccentricity": 0.0,
        "Inclination(deg)": 53.0,
        "Latitude(deg)": 28.857771172761844,
        "Longitude(deg)": -136.97249496565112,
        "Mean Anomaly(deg)": 37.0490297173716,
        "RAAN(deg)": 299.98288058744345,
        "Satellite Name": "Starlink Shell 1 1321",
        "Satellite Number": 1321,
        "Semi-Major Axis(m)": 6931778.249405717,
        "Time(s)": 330
    },
    {
        "Altitude(m)": 554931.5148772924,
        "Argument of Periapsis(deg)": 0.011851668303382053,
        "Eccentricity": 0.0,
        "Inclination(deg)": 53.0,
        "Latitude(deg)": 29.314925401868756,
        "Longitude(deg)": -136.5212232038547,
        "Mean Anomaly(deg)": 37.6758609209283,
        "RAAN(deg)": 299.9823618173659,
        "Satellite Name": "Starlink Shell 1 1321",
        "Satellite Number": 1321,
        "Semi-Major Axis(m)": 6931778.249405717,
        "Time(s)": 340
    },
    {
        "Altitude(m)": 555003.6591203826,
        "Argument of Periapsis(deg)": 0.012200246782893292,
        "Eccentricity": 0.0,
        "Inclination(deg)": 53.0,
        "Latitude(deg)": 29.770215448884674,
        "Longitude(deg)": -136.0655539078358,
        "Mean Anomaly(deg)": 38.30269212448504,
        "RAAN(deg)": 299.9818430472885,
        "Satellite Name": "Starlink Shell 1 1321",
        "Satellite Number": 1321,
        "Semi-Major Axis(m)": 6931778.249405717,
        "Time(s)": 350
    },
    {
        "Altitude(m)": 555076.893080436,
        "Argument of Periapsis(deg)": 0.012548825262404526,
        "Eccentricity": 0.0,
        "Inclination(deg)": 53.0,
        "Latitude(deg)": 30.223590328399485,
        "Longitude(deg)": -135.6053828116451,
        "Mean Anomaly(deg)": 38.92952332804174,
        "RAAN(deg)": 299.981324277211,
        "Satellite Name": "Starlink Shell 1 1321",
        "Satellite Number": 1321,
        "Semi-Major Axis(m)": 6931778.249405717,
        "Time(s)": 360
    },
    {
        "Altitude(m)": 555151.163053334,
        "Argument of Periapsis(deg)": 0.012897403741915765,
        "Eccentricity": 0.0,
        "Inclination(deg)": 53.0,
        "Latitude(deg)": 30.67499790288612,
        "Longitude(deg)": -135.14060485294874,
        "Mean Anomaly(deg)": 39.55635453159844,
        "RAAN(deg)": 299.98080550713354,
        "Satellite Name": "Starlink Shell 1 1321",
        "Satellite Number": 1321,
        "Semi-Major Axis(m)": 6931778.249405717,
        "Time(s)": 370
    }
]